{
  "type": "FeatureCollection",
  "features": [
    {
      "type": "Feature",
      "properties": {
        "norad_id": 27954,
        "name": "GALAXY 13 (HORIZONS-1)",
        "group": "intelsat",
        "lat": 0.8257934109083812,
        "lon": -156.59932736047193,
        "alt_km": 35780.65485834518,
        "timestamp": "2025-12-16T17:51:10.591679+00:00",
        "meta_object_name": "GALAXY 13 (HORIZONS-1)",
        "meta_object_id": "2003-044A",
        "meta_epoch": "2025-12-15T12:40:27.318144",
        "meta_mean_motion": 1.00272788,
        "meta_eccentricity": 0.00020747,
        "meta_inclination": 0.9431,
        "meta_ra_of_asc_node": 86.4332,
        "meta_arg_of_pericenter": 173.1454,
        "meta_mean_anomaly": 224.9644,
        "meta_ephemeris_type": 0,
        "meta_classification_type": "U",
        "meta_norad_cat_id": 27954,
        "meta_element_set_no": 999,
        "meta_rev_at_epoch": 4473,
        "meta_bstar": 0,
        "meta_mean_motion_dot": 1.54e-06,
        "meta_mean_motion_ddot": 0,
        "tle_line1": "1 27954U 03044A   25349.52809396  .00000154  00000+0  00000+0 0  9991",
        "tle_line2": "2 27954   0.9431  86.4332 0002074 173.1454 224.9644  1.00272788 44734"
      },
      "geometry": {
        "type": "Point",
        "coordinates": [
          -156.59932736047193,
          0.8257934109083812
        ]
      }
    },
    {
      "type": "Feature",
      "properties": {
        "norad_id": 28358,
        "name": "INTELSAT 10-02",
        "group": "intelsat",
        "lat": -0.014339138548491052,
        "lon": -7.537415754796893,
        "alt_km": 35783.02832305557,
        "timestamp": "2025-12-16T17:51:10.591693+00:00",
        "meta_object_name": "INTELSAT 10-02",
        "meta_object_id": "2004-022A",
        "meta_epoch": "2025-12-15T21:56:39.556608",
        "meta_mean_motion": 1.00272589,
        "meta_eccentricity": 0.00010006,
        "meta_inclination": 0.0248,
        "meta_ra_of_asc_node": 69.9541,
        "meta_arg_of_pericenter": 234.3244,
        "meta_mean_anomaly": 108.7377,
        "meta_ephemeris_type": 0,
        "meta_classification_type": "U",
        "meta_norad_cat_id": 28358,
        "meta_element_set_no": 999,
        "meta_rev_at_epoch": 7871,
        "meta_bstar": 0,
        "meta_mean_motion_dot": 1.2e-07,
        "meta_mean_motion_ddot": 0,
        "tle_line1": "1 28358U 04022A   25349.91434672  .00000012  00000+0  00000+0 0  9994",
        "tle_line2": "2 28358   0.0248  69.9541 0001000 234.3244 108.7377  1.00272589 78719"
      },
      "geometry": {
        "type": "Point",
        "coordinates": [
          -7.537415754796893,
          -0.014339138548491052
        ]
      }
    },
    {
      "type": "Feature",
      "properties": {
        "norad_id": 28626,
        "name": "XM-3 (RHYTHM)",
        "group": "intelsat",
        "lat": 0.04663774422815148,
        "lon": 88.72359969384087,
        "alt_km": 36160.61246235671,
        "timestamp": "2025-12-16T17:51:10.591706+00:00",
        "meta_object_name": "XM-3 (RHYTHM)",
        "meta_object_id": "2005-008A",
        "meta_epoch": "2025-12-15T18:59:51.902880",
        "meta_mean_motion": 0.98951196,
        "meta_eccentricity": 0.00017159,
        "meta_inclination": 0.1825,
        "meta_ra_of_asc_node": 81.782,
        "meta_arg_of_pericenter": 275.9891,
        "meta_mean_anomaly": 111.7066,
        "meta_ephemeris_type": 0,
        "meta_classification_type": "U",
        "meta_norad_cat_id": 28626,
        "meta_element_set_no": 999,
        "meta_rev_at_epoch": 4078,
        "meta_bstar": 0,
        "meta_mean_motion_dot": -4.6e-07,
        "meta_mean_motion_ddot": 0,
        "tle_line1": "1 28626U 05008A   25349.79157295 -.00000046  00000+0  00000+0 0  9994",
        "tle_line2": "2 28626   0.1825  81.7820 0001715 275.9891 111.7066  0.98951196 40782"
      },
      "geometry": {
        "type": "Point",
        "coordinates": [
          88.72359969384087,
          0.04663774422815148
        ]
      }
    },
    {
      "type": "Feature",
      "properties": {
        "norad_id": 28659,
        "name": "DIRECTV 8",
        "group": "intelsat",
        "lat": -0.029206623687217836,
        "lon": -125.64525966873931,
        "alt_km": 35776.179532015485,
        "timestamp": "2025-12-16T17:51:10.591719+00:00",
        "meta_object_name": "DIRECTV 8",
        "meta_object_id": "2005-019A",
        "meta_epoch": "2025-12-15T21:22:57.785376",
        "meta_mean_motion": 1.00272587,
        "meta_eccentricity": 0.0002901,
        "meta_inclination": 0.0121,
        "meta_ra_of_asc_node": 298.5741,
        "meta_arg_of_pericenter": 334.2049,
        "meta_mean_anomaly": 13.7115,
        "meta_ephemeris_type": 0,
        "meta_classification_type": "U",
        "meta_norad_cat_id": 28659,
        "meta_element_set_no": 999,
        "meta_rev_at_epoch": 7523,
        "meta_bstar": 0,
        "meta_mean_motion_dot": 2.4e-07,
        "meta_mean_motion_ddot": 0,
        "tle_line1": "1 28659U 05019A   25349.89094659  .00000024  00000+0  00000+0 0  9992",
        "tle_line2": "2 28659   0.0121 298.5741 0002901 334.2049  13.7115  1.00272587 75236"
      },
      "geometry": {
        "type": "Point",
        "coordinates": [
          -125.64525966873931,
          -0.029206623687217836
        ]
      }
    },
    {
      "type": "Feature",
      "properties": {
        "norad_id": 28702,
        "name": "GALAXY 28 (G-28)",
        "group": "intelsat",
        "lat": -0.19667192925544927,
        "lon": -95.28483279507248,
        "alt_km": 35774.21386050326,
        "timestamp": "2025-12-16T17:51:10.591731+00:00",
        "meta_object_name": "GALAXY 28 (G-28)",
        "meta_object_id": "2005-022A",
        "meta_epoch": "2025-12-15T21:31:34.459968",
        "meta_mean_motion": 1.00271164,
        "meta_eccentricity": 0.00028733,
        "meta_inclination": 2.8272,
        "meta_ra_of_asc_node": 81.2455,
        "meta_arg_of_pericenter": 188.7759,
        "meta_mean_anomaly": 48.9748,
        "meta_ephemeris_type": 0,
        "meta_classification_type": "U",
        "meta_norad_cat_id": 28702,
        "meta_element_set_no": 999,
        "meta_rev_at_epoch": 5013,
        "meta_bstar": 0,
        "meta_mean_motion_dot": -1.66e-06,
        "meta_mean_motion_ddot": 0,
        "tle_line1": "1 28702U 05022A   25349.89692662 -.00000166  00000+0  00000+0 0  9991",
        "tle_line2": "2 28702   2.8272  81.2455 0002873 188.7759  48.9748  1.00271164 50133"
      },
      "geometry": {
        "type": "Point",
        "coordinates": [
          -95.28483279507248,
          -0.19667192925544927
        ]
      }
    },
    {
      "type": "Feature",
      "properties": {
        "norad_id": 29236,
        "name": "GALAXY 16 (G-16)",
        "group": "intelsat",
        "lat": -0.011747823055333234,
        "lon": -105.5902820608515,
        "alt_km": 35775.38866250269,
        "timestamp": "2025-12-16T17:51:10.591743+00:00",
        "meta_object_name": "GALAXY 16 (G-16)",
        "meta_object_id": "2006-023A",
        "meta_epoch": "2025-12-15T21:28:42.235392",
        "meta_mean_motion": 1.00272415,
        "meta_eccentricity": 0.00025049,
        "meta_inclination": 0.0343,
        "meta_ra_of_asc_node": 222.7142,
        "meta_arg_of_pericenter": 38.3426,
        "meta_mean_anomaly": 46.9113,
        "meta_ephemeris_type": 0,
        "meta_classification_type": "U",
        "meta_norad_cat_id": 29236,
        "meta_element_set_no": 999,
        "meta_rev_at_epoch": 7113,
        "meta_bstar": 0,
        "meta_mean_motion_dot": -1.04e-06,
        "meta_mean_motion_ddot": 0,
        "tle_line1": "1 29236U 06023A   25349.89493328 -.00000104  00000+0  00000+0 0  9996",
        "tle_line2": "2 29236   0.0343 222.7142 0002504  38.3426  46.9113  1.00272415 71139"
      },
      "geometry": {
        "type": "Point",
        "coordinates": [
          -105.5902820608515,
          -0.011747823055333234
        ]
      }
    },
    {
      "type": "Feature",
      "properties": {
        "norad_id": 29494,
        "name": "DIRECTV 9S",
        "group": "intelsat",
        "lat": 0.34593445945182955,
        "lon": -107.79875382086637,
        "alt_km": 35774.39471691255,
        "timestamp": "2025-12-16T17:51:10.591755+00:00",
        "meta_object_name": "DIRECTV 9S",
        "meta_object_id": "2006-043A",
        "meta_epoch": "2025-12-15T21:27:57.307392",
        "meta_mean_motion": 1.00271943,
        "meta_eccentricity": 0.00028687,
        "meta_inclination": 1.9481,
        "meta_ra_of_asc_node": 83.1794,
        "meta_arg_of_pericenter": 186.1809,
        "meta_mean_anomaly": 36.2098,
        "meta_ephemeris_type": 0,
        "meta_classification_type": "U",
        "meta_norad_cat_id": 29494,
        "meta_element_set_no": 999,
        "meta_rev_at_epoch": 4954,
        "meta_bstar": 0,
        "meta_mean_motion_dot": -9.2e-07,
        "meta_mean_motion_ddot": 0,
        "tle_line1": "1 29494U 06043A   25349.89441328 -.00000092  00000+0  00000+0 0  9993",
        "tle_line2": "2 29494   1.9481  83.1794 0002868 186.1809  36.2098  1.00271943 49549"
      },
      "geometry": {
        "type": "Point",
        "coordinates": [
          -107.79875382086637,
          0.34593445945182955
        ]
      }
    }
  ]
}